EUTELSAT 21B            
1 38992U 12062B   25345.56726819  .00000137  00000+0  00000+0 0  9994
2 38992   0.0665   3.3539 0003329 266.6326  36.3517  1.00271966 47942
EUTELSAT 70B            
1 39020U 12069A   25345.36281693 -.00000037  00000+0  00000+0 0  9998
2 39020   0.0630 342.5267 0004364 262.7430  36.1894  1.00271829 47625
EUTELSAT 117 WEST A     
1 39122U 13012A   25345.46844869 -.00000006  00000+0  00000+0 0  9997
2 39122   0.0138   4.2554 0002974 258.9766 229.0323  1.00271332 46556
EUTELSAT 7B             
1 39163U 13022A   25345.56432150  .00000055  00000+0  00000+0 0  9993
2 39163   0.0725  19.1801 0004606 297.3227 334.1679  1.00272561 46070
EXPRESS-AT1             
1 39612U 14010A   25345.64544203  .00000086  00000+0  00000+0 0  9996
2 39612   0.0163 298.4962 0000417 273.1745 157.2829  1.00271326 42938
EXPRESS-AT2             
1 39613U 14010B   25345.59066833 -.00000274  00000+0  00000+0 0  9999
2 39613   0.0193 312.6230 0001433 324.9956 155.4371  1.00271711 42612
EUTELSAT 3B             
1 39773U 14030A   25344.99290456  .00000025  00000+0  00000+0 0  9994
2 39773   0.0617 345.4375 0004641 243.1309 211.9454  1.00272013 42180
EUTELSAT 115 WEST B     
1 40425U 15010B   25344.96950443 -.00000019  00000+0  00000+0 0  9999
2 40425   0.0085 151.2991 0000311  11.6564 151.0992  1.00269045 39507
